{"id":"68126","noradId":"68126","name":"ECHOSTAR 25","line1":"1 68126U 26045A   26165.59559778  .00000000  00000+0  00000+0 0  9993","line2":"2 68126   0.0240  13.7485 0001614  71.8296 281.7341  1.00271434   967","kind":"satellite","owner":"United States","country":"United States","countryCode":"US","objectType":"PAYLOAD","intlDesignator":"2026-045A","launchDate":"2026-03-10","periodMinutes":1436.12,"inclinationDeg":0.01,"apogeeKm":35793,"perigeeKm":35781,"source":"offline","sourceUrl":"https://celestrak.org/NORAD/elements/gp.php?GROUP=geo&FORMAT=tle","tleEpochUtc":"2026-06-14T14:17:39.648Z","orbitClass":"GEO"}